[{"CCSDS_OMM_VERS":"2.0","COMMENT":"GENERATED VIA SPACE-TRACK.ORG API","CREATION_DATE":"2017-10-17T21:44:59","ORIGINATOR":"18 SPCS","OBJECT_NAME":"GALILEO-FM3","OBJECT_ID":"2012-055A","CENTER_NAME":"EARTH","REF_FRAME":"TEME","TIME_SYSTEM":"UTC","MEAN_ELEMENT_THEORY":"SGP4","EPOCH":"2017-10-16T16:17:45.360672","MEAN_MOTION":"1.70473797","ECCENTRICITY":"0.00026600","INCLINATION":"54.9037","RA_OF_ASC_NODE":"188.6712","ARG_OF_PERICENTER":"246.5737","MEAN_ANOMALY":"113.4514","EPHEMERIS_TYPE":"0","CLASSIFICATION_TYPE":"U","NORAD_CAT_ID":"38857","ELEMENT_SET_NO":"999","REV_AT_EPOCH":"3119","BSTAR":"0.00000000000000","MEAN_MOTION_DOT":"-0.00000017","MEAN_MOTION_DDOT":"0.0000000000000","SEMIMAJOR_AXIS":"29600.343","PERIOD":"844.704","APOAPSIS":"23230.082","PERIAPSIS":"23214.334","OBJECT_TYPE":"PAYLOAD","RCS_SIZE":"LARGE","COUNTRY_CODE":"ESA","LAUNCH_DATE":"2012-10-12","SITE":"FRGUI","DECAY_DATE":null,"FILE":"2193648","GP_ID":"114892650","TLE_LINE0":"0 GALILEO-FM3","TLE_LINE1":"1 38857U 12055A   17289.67899723 -.00000017 +00000-0 +00000-0 0  9991","TLE_LINE2":"2 38857 054.9037 188.6712 0002660 246.5737 113.4514 01.70473797031190"},{"CCSDS_OMM_VERS":"2.0","COMMENT":"GENERATED VIA SPACE-TRACK.ORG API","CREATION_DATE":"2017-10-18T21:54:40","ORIGINATOR":"18 SPCS","OBJECT_NAME":"GALILEO-FM3","OBJECT_ID":"2012-055A","CENTER_NAME":"EARTH","REF_FRAME":"TEME","TIME_SYSTEM":"UTC","MEAN_ELEMENT_THEORY":"SGP4","EPOCH":"2017-10-17T20:27:08.205120","MEAN_MOTION":"1.70473822","ECCENTRICITY":"0.00026140","INCLINATION":"54.9035","RA_OF_ASC_NODE":"188.6388","ARG_OF_PERICENTER":"246.2646","MEAN_ANOMALY":"113.7690","EPHEMERIS_TYPE":"0","CLASSIFICATION_TYPE":"U","NORAD_CAT_ID":"38857","ELEMENT_SET_NO":"999","REV_AT_EPOCH":"3121","BSTAR":"0.00000000000000","MEAN_MOTION_DOT":"-0.00000010","MEAN_MOTION_DDOT":"0.0000000000000","SEMIMAJOR_AXIS":"29600.340","PERIOD":"844.704","APOAPSIS":"23229.943","PERIAPSIS":"23214.468","OBJECT_TYPE":"PAYLOAD","RCS_SIZE":"LARGE","COUNTRY_CODE":"ESA","LAUNCH_DATE":"2012-10-12","SITE":"FRGUI","DECAY_DATE":null,"FILE":"2194133","GP_ID":"114916866","TLE_LINE0":"0 GALILEO-FM3","TLE_LINE1":"1 38857U 12055A   17290.85217830 -.00000010 +00000-0 +00000-0 0  9999","TLE_LINE2":"2 38857 054.9035 188.6388 0002614 246.2646 113.7690 01.70473822031212"},{"CCSDS_OMM_VERS":"2.0","COMMENT":"GENERATED VIA SPACE-TRACK.ORG API","CREATION_DATE":"2017-10-19T11:34:32","ORIGINATOR":"18 SPCS","OBJECT_NAME":"GALILEO-FM3","OBJECT_ID":"2012-055A","CENTER_NAME":"EARTH","REF_FRAME":"TEME","TIME_SYSTEM":"UTC","MEAN_ELEMENT_THEORY":"SGP4","EPOCH":"2017-10-18T10:31:49.651104","MEAN_MOTION":"1.70473833","ECCENTRICITY":"0.00026030","INCLINATION":"54.9035","RA_OF_ASC_NODE":"188.6226","ARG_OF_PERICENTER":"246.2277","MEAN_ANOMALY":"113.8104","EPHEMERIS_TYPE":"0","CLASSIFICATION_TYPE":"U","NORAD_CAT_ID":"38857","ELEMENT_SET_NO":"999","REV_AT_EPOCH":"3122","BSTAR":"0.00000000000000","MEAN_MOTION_DOT":"-0.00000006","MEAN_MOTION_DDOT":"0.0000000000000","SEMIMAJOR_AXIS":"29600.339","PERIOD":"844.704","APOAPSIS":"23229.909","PERIAPSIS":"23214.499","OBJECT_TYPE":"PAYLOAD","RCS_SIZE":"LARGE","COUNTRY_CODE":"ESA","LAUNCH_DATE":"2012-10-12","SITE":"FRGUI","DECAY_DATE":null,"FILE":"2194410","GP_ID":"114929796","TLE_LINE0":"0 GALILEO-FM3","TLE_LINE1":"1 38857U 12055A   17291.43876911 -.00000006 +00000-0 +00000-0 0  9990","TLE_LINE2":"2 38857 054.9035 188.6226 0002603 246.2277 113.8104 01.70473833031225"},{"CCSDS_OMM_VERS":"2.0","COMMENT":"GENERATED VIA SPACE-TRACK.ORG API","CREATION_DATE":"2017-10-19T11:54:40","ORIGINATOR":"18 SPCS","OBJECT_NAME":"GALILEO-FM3","OBJECT_ID":"2012-055A","CENTER_NAME":"EARTH","REF_FRAME":"TEME","TIME_SYSTEM":"UTC","MEAN_ELEMENT_THEORY":"SGP4","EPOCH":"2017-10-19T00:36:31.092768","MEAN_MOTION":"1.70473843","ECCENTRICITY":"0.00025860","INCLINATION":"54.9035","RA_OF_ASC_NODE":"188.6064","ARG_OF_PERICENTER":"246.0829","MEAN_ANOMALY":"113.9598","EPHEMERIS_TYPE":"0","CLASSIFICATION_TYPE":"U","NORAD_CAT_ID":"38857","ELEMENT_SET_NO":"999","REV_AT_EPOCH":"3124","BSTAR":"0.00000000000000","MEAN_MOTION_DOT":"-0.00000002","MEAN_MOTION_DDOT":"0.0000000000000","SEMIMAJOR_AXIS":"29600.338","PERIOD":"844.704","APOAPSIS":"23229.857","PERIAPSIS":"23214.548","OBJECT_TYPE":"PAYLOAD","RCS_SIZE":"LARGE","COUNTRY_CODE":"ESA","LAUNCH_DATE":"2012-10-12","SITE":"FRGUI","DECAY_DATE":null,"FILE":"2194430","GP_ID":"114931273","TLE_LINE0":"0 GALILEO-FM3","TLE_LINE1":"1 38857U 12055A   17292.02535987 -.00000002  00000-0  00000+0 0  9996","TLE_LINE2":"2 38857  54.9035 188.6064 0002586 246.0829 113.9598  1.70473843 31247"},{"CCSDS_OMM_VERS":"2.0","COMMENT":"GENERATED VIA SPACE-TRACK.ORG API","CREATION_DATE":"2017-10-20T23:16:39","ORIGINATOR":"18 SPCS","OBJECT_NAME":"GALILEO-FM3","OBJECT_ID":"2012-055A","CENTER_NAME":"EARTH","REF_FRAME":"TEME","TIME_SYSTEM":"UTC","MEAN_ELEMENT_THEORY":"SGP4","EPOCH":"2017-10-19T14:41:12.533568","MEAN_MOTION":"1.70473854","ECCENTRICITY":"0.00025600","INCLINATION":"54.9034","RA_OF_ASC_NODE":"188.5902","ARG_OF_PERICENTER":"245.8589","MEAN_ANOMALY":"114.1881","EPHEMERIS_TYPE":"0","CLASSIFICATION_TYPE":"U","NORAD_CAT_ID":"38857","ELEMENT_SET_NO":"999","REV_AT_EPOCH":"3124","BSTAR":"0.00000000000000","MEAN_MOTION_DOT":"0.00000001","MEAN_MOTION_DDOT":"0.0000000000000","SEMIMAJOR_AXIS":"29600.336","PERIOD":"844.704","APOAPSIS":"23229.779","PERIAPSIS":"23214.624","OBJECT_TYPE":"PAYLOAD","RCS_SIZE":"LARGE","COUNTRY_CODE":"ESA","LAUNCH_DATE":"2012-10-12","SITE":"FRGUI","DECAY_DATE":null,"FILE":"2195154","GP_ID":"114969630","TLE_LINE0":"0 GALILEO-FM3","TLE_LINE1":"1 38857U 12055A   17292.61195062 +.00000001 +00000-0 +00000-0 0  9996","TLE_LINE2":"2 38857 054.9034 188.5902 0002560 245.8589 114.1881 01.70473854031248"},{"CCSDS_OMM_VERS":"2.0","COMMENT":"GENERATED VIA SPACE-TRACK.ORG API","CREATION_DATE":"2017-10-21T07:59:51","ORIGINATOR":"18 SPCS","OBJECT_NAME":"GALILEO-FM3","OBJECT_ID":"2012-055A","CENTER_NAME":"EARTH","REF_FRAME":"TEME","TIME_SYSTEM":"UTC","MEAN_ELEMENT_THEORY":"SGP4","EPOCH":"2017-10-20T04:45:53.883648","MEAN_MOTION":"1.70473866","ECCENTRICITY":"0.00025410","INCLINATION":"54.9034","RA_OF_ASC_NODE":"188.5740","ARG_OF_PERICENTER":"245.6726","MEAN_ANOMALY":"114.3784","EPHEMERIS_TYPE":"0","CLASSIFICATION_TYPE":"U","NORAD_CAT_ID":"38857","ELEMENT_SET_NO":"999","REV_AT_EPOCH":"3125","BSTAR":"0.00000000000000","MEAN_MOTION_DOT":"0.00000003","MEAN_MOTION_DDOT":"0.0000000000000","SEMIMAJOR_AXIS":"29600.335","PERIOD":"844.704","APOAPSIS":"23229.722","PERIAPSIS":"23214.679","OBJECT_TYPE":"PAYLOAD","RCS_SIZE":"LARGE","COUNTRY_CODE":"ESA","LAUNCH_DATE":"2012-10-12","SITE":"FRGUI","DECAY_DATE":null,"FILE":"2195319","GP_ID":"114980119","TLE_LINE0":"0 GALILEO-FM3","TLE_LINE1":"1 38857U 12055A   17293.19854032 +.00000003 +00000-0 +00000-0 0  9991","TLE_LINE2":"2 38857 054.9034 188.5740 0002541 245.6726 114.3784 01.70473866031256"},{"CCSDS_OMM_VERS":"2.0","COMMENT":"GENERATED VIA SPACE-TRACK.ORG API","CREATION_DATE":"2017-10-21T22:07:18","ORIGINATOR":"18 SPCS","OBJECT_NAME":"GALILEO-FM3","OBJECT_ID":"2012-055A","CENTER_NAME":"EARTH","REF_FRAME":"TEME","TIME_SYSTEM":"UTC","MEAN_ELEMENT_THEORY":"SGP4","EPOCH":"2017-10-20T18:50:35.141280","MEAN_MOTION":"1.70473874","ECCENTRICITY":"0.00025280","INCLINATION":"54.9034","RA_OF_ASC_NODE":"188.5577","ARG_OF_PERICENTER":"245.6027","MEAN_ANOMALY":"114.4516","EPHEMERIS_TYPE":"0","CLASSIFICATION_TYPE":"U","NORAD_CAT_ID":"38857","ELEMENT_SET_NO":"999","REV_AT_EPOCH":"3126","BSTAR":"0.00000000000000","MEAN_MOTION_DOT":"0.00000005","MEAN_MOTION_DDOT":"0.0000000000000","SEMIMAJOR_AXIS":"29600.334","PERIOD":"844.704","APOAPSIS":"23229.682","PERIAPSIS":"23214.716","OBJECT_TYPE":"PAYLOAD","RCS_SIZE":"LARGE","COUNTRY_CODE":"ESA","LAUNCH_DATE":"2012-10-12","SITE":"FRGUI","DECAY_DATE":null,"FILE":"2195550","GP_ID":"114992292","TLE_LINE0":"0 GALILEO-FM3","TLE_LINE1":"1 38857U 12055A   17293.78512895 +.00000005 +00000-0 +00000-0 0  9996","TLE_LINE2":"2 38857 054.9034 188.5577 0002528 245.6027 114.4516 01.70473874031267"},{"CCSDS_OMM_VERS":"2.0","COMMENT":"GENERATED VIA SPACE-TRACK.ORG API","CREATION_DATE":"2017-10-23T14:32:55","ORIGINATOR":"18 SPCS","OBJECT_NAME":"GALILEO-FM3","OBJECT_ID":"2012-055A","CENTER_NAME":"EARTH","REF_FRAME":"TEME","TIME_SYSTEM":"UTC","MEAN_ELEMENT_THEORY":"SGP4","EPOCH":"2017-10-23T03:09:19.340640","MEAN_MOTION":"1.70473900","ECCENTRICITY":"0.00024430","INCLINATION":"54.9033","RA_OF_ASC_NODE":"188.4929","ARG_OF_PERICENTER":"244.6607","MEAN_ANOMALY":"115.4007","EPHEMERIS_TYPE":"0","CLASSIFICATION_TYPE":"U","NORAD_CAT_ID":"38857","ELEMENT_SET_NO":"999","REV_AT_EPOCH":"3131","BSTAR":"0.00000000000000","MEAN_MOTION_DOT":"0.00000008","MEAN_MOTION_DDOT":"0.0000000000000","SEMIMAJOR_AXIS":"29600.331","PERIOD":"844.704","APOAPSIS":"23229.427","PERIAPSIS":"23214.965","OBJECT_TYPE":"PAYLOAD","RCS_SIZE":"LARGE","COUNTRY_CODE":"ESA","LAUNCH_DATE":"2012-10-12","SITE":"FRGUI","DECAY_DATE":null,"FILE":"2196347","GP_ID":"115034125","TLE_LINE0":"0 GALILEO-FM3","TLE_LINE1":"1 38857U 12055A   17296.13147385  .00000008  00000-0  00000+0 0  9998","TLE_LINE2":"2 38857  54.9033 188.4929 0002443 244.6607 115.4007  1.70473900 31317"}]